{
  "type": "FeatureCollection",
  "features": [
    {
      "type": "Feature",
      "properties": {
        "norad_id": 33860,
        "name": "IRIDIUM 33 DEB",
        "group": "iridium-33-debris",
        "lat": -28.887263774621577,
        "lon": -149.32031732799507,
        "alt_km": 680.9531381151937,
        "timestamp": "2025-12-09T11:33:55.185590+00:00",
        "meta_object_name": "IRIDIUM 33 DEB",
        "meta_object_id": "1997-051AD",
        "meta_epoch": "2025-12-09T02:41:58.809408",
        "meta_mean_motion": 14.67293225,
        "meta_eccentricity": 0.0007935,
        "meta_inclination": 86.3836,
        "meta_ra_of_asc_node": 28.8434,
        "meta_arg_of_pericenter": 10.3707,
        "meta_mean_anomaly": 48.4876,
        "meta_ephemeris_type": 0,
        "meta_classification_type": "U",
        "meta_norad_cat_id": 33860,
        "meta_element_set_no": 999,
        "meta_rev_at_epoch": 88669,
        "meta_bstar": 0.0014212,
        "meta_mean_motion_dot": 8.042e-05,
        "meta_mean_motion_ddot": 0,
        "tle_line1": "1 33860U 97051AD  25343.11248622  .00008042  00000+0  14212-2 0  9990",
        "tle_line2": "2 33860  86.3836  28.8434 0007935  10.3707  48.4876 14.67293225886692"
      },
      "geometry": {
        "type": "Point",
        "coordinates": [
          -149.32031732799507,
          -28.887263774621577
        ]
      }
    },
    {
      "type": "Feature",
      "properties": {
        "norad_id": 33862,
        "name": "IRIDIUM 33 DEB",
        "group": "iridium-33-debris",
        "lat": -39.980973527168985,
        "lon": -138.01459143193523,
        "alt_km": 698.5237014113718,
        "timestamp": "2025-12-09T11:33:55.185602+00:00",
        "meta_object_name": "IRIDIUM 33 DEB",
        "meta_object_id": "1997-051AF",
        "meta_epoch": "2025-12-09T04:16:30.984096",
        "meta_mean_motion": 14.69381362,
        "meta_eccentricity": 0.0053708,
        "meta_inclination": 86.4088,
        "meta_ra_of_asc_node": 39.1006,
        "meta_arg_of_pericenter": 81.053,
        "meta_mean_anomaly": 332.7915,
        "meta_ephemeris_type": 0,
        "meta_classification_type": "U",
        "meta_norad_cat_id": 33862,
        "meta_element_set_no": 999,
        "meta_rev_at_epoch": 88771,
        "meta_bstar": 0.0016086,
        "meta_mean_motion_dot": 9.751e-05,
        "meta_mean_motion_ddot": 0,
        "tle_line1": "1 33862U 97051AF  25343.17813639  .00009751  00000+0  16086-2 0  9993",
        "tle_line2": "2 33862  86.4088  39.1006 0053708  81.0530 332.7915 14.69381362887711"
      },
      "geometry": {
        "type": "Point",
        "coordinates": [
          -138.01459143193523,
          -39.980973527168985
        ]
      }
    },
    {
      "type": "Feature",
      "properties": {
        "norad_id": 33866,
        "name": "IRIDIUM 33 DEB",
        "group": "iridium-33-debris",
        "lat": 80.03622519165943,
        "lon": 116.02607425347153,
        "alt_km": 800.8130455470928,
        "timestamp": "2025-12-09T11:33:55.185613+00:00",
        "meta_object_name": "IRIDIUM 33 DEB",
        "meta_object_id": "1997-051AK",
        "meta_epoch": "2025-12-08T20:36:39.868992",
        "meta_mean_motion": 14.2525579,
        "meta_eccentricity": 0.01141524,
        "meta_inclination": 86.3002,
        "meta_ra_of_asc_node": 94.6775,
        "meta_arg_of_pericenter": 173.7602,
        "meta_mean_anomaly": 313.2599,
        "meta_ephemeris_type": 0,
        "meta_classification_type": "U",
        "meta_norad_cat_id": 33866,
        "meta_element_set_no": 999,
        "meta_rev_at_epoch": 86755,
        "meta_bstar": 0.0013239084,
        "meta_mean_motion_dot": 3.351e-05,
        "meta_mean_motion_ddot": 0,
        "tle_line1": "1 33866U 97051AK  25342.85879478  .00003351  00000+0  13239-2 0  9991",
        "tle_line2": "2 33866  86.3002  94.6775 0114152 173.7602 313.2599 14.25255790867558"
      },
      "geometry": {
        "type": "Point",
        "coordinates": [
          116.02607425347153,
          80.03622519165943
        ]
      }
    },
    {
      "type": "Feature",
      "properties": {
        "norad_id": 33867,
        "name": "IRIDIUM 33 DEB",
        "group": "iridium-33-debris",
        "lat": -75.89046417451185,
        "lon": -22.868389419190606,
        "alt_km": 398.6089403591859,
        "timestamp": "2025-12-09T11:33:55.185624+00:00",
        "meta_object_name": "IRIDIUM 33 DEB",
        "meta_object_id": "1997-051AL",
        "meta_epoch": "2025-12-09T01:07:32.630880",
        "meta_mean_motion": 15.61194755,
        "meta_eccentricity": 0.0013073,
        "meta_inclination": 86.3629,
        "meta_ra_of_asc_node": 352.0144,
        "meta_arg_of_pericenter": 91.4766,
        "meta_mean_anomaly": 268.7997,
        "meta_ephemeris_type": 0,
        "meta_classification_type": "U",
        "meta_norad_cat_id": 33867,
        "meta_element_set_no": 999,
        "meta_rev_at_epoch": 89453,
        "meta_bstar": 0.0073525,
        "meta_mean_motion_dot": 0.00674938,
        "meta_mean_motion_ddot": 0,
        "tle_line1": "1 33867U 97051AL  25343.04690545  .00674938  00000+0  73525-2 0  9999",
        "tle_line2": "2 33867  86.3629 352.0144 0013073  91.4766 268.7997 15.61194755894530"
      },
      "geometry": {
        "type": "Point",
        "coordinates": [
          -22.868389419190606,
          -75.89046417451185
        ]
      }
    },
    {
      "type": "Feature",
      "properties": {
        "norad_id": 33870,
        "name": "IRIDIUM 33 DEB",
        "group": "iridium-33-debris",
        "lat": -59.73454259535464,
        "lon": 53.41995411037733,
        "alt_km": 751.967718062856,
        "timestamp": "2025-12-09T11:33:55.185636+00:00",
        "meta_object_name": "IRIDIUM 33 DEB",
        "meta_object_id": "1997-051AP",
        "meta_epoch": "2025-12-08T23:22:35.143104",
        "meta_mean_motion": 14.45818414,
        "meta_eccentricity": 0.0021059,
        "meta_inclination": 86.3747,
        "meta_ra_of_asc_node": 59.8748,
        "meta_arg_of_pericenter": 190.5386,
        "meta_mean_anomaly": 347.6141,
        "meta_ephemeris_type": 0,
        "meta_classification_type": "U",
        "meta_norad_cat_id": 33870,
        "meta_element_set_no": 999,
        "meta_rev_at_epoch": 88082,
        "meta_bstar": 0.0010489,
        "meta_mean_motion_dot": 3.75e-05,
        "meta_mean_motion_ddot": 0,
        "tle_line1": "1 33870U 97051AP  25342.97401786  .00003750  00000+0  10489-2 0  9999",
        "tle_line2": "2 33870  86.3747  59.8748 0021059 190.5386 347.6141 14.45818414880820"
      },
      "geometry": {
        "type": "Point",
        "coordinates": [
          53.41995411037733,
          -59.73454259535464
        ]
      }
    },
    {
      "type": "Feature",
      "properties": {
        "norad_id": 33881,
        "name": "IRIDIUM 33 DEB",
        "group": "iridium-33-debris",
        "lat": 42.37728697763061,
        "lon": 111.46291251006954,
        "alt_km": 735.6663065504854,
        "timestamp": "2025-12-09T11:33:55.185646+00:00",
        "meta_object_name": "IRIDIUM 33 DEB",
        "meta_object_id": "1997-051BA",
        "meta_epoch": "2025-12-08T21:05:51.876096",
        "meta_mean_motion": 14.5645843,
        "meta_eccentricity": 0.0061428,
        "meta_inclination": 86.3871,
        "meta_ra_of_asc_node": 108.42,
        "meta_arg_of_pericenter": 187.1593,
        "meta_mean_anomaly": 297.143,
        "meta_ephemeris_type": 0,
        "meta_classification_type": "U",
        "meta_norad_cat_id": 33881,
        "meta_element_set_no": 999,
        "meta_rev_at_epoch": 87444,
        "meta_bstar": 0.002467,
        "meta_mean_motion_dot": 0.00011273,
        "meta_mean_motion_ddot": 0,
        "tle_line1": "1 33881U 97051BA  25342.87907264  .00011273  00000+0  24670-2 0  9998",
        "tle_line2": "2 33881  86.3871 108.4200 0061428 187.1593 297.1430 14.56458430874441"
      },
      "geometry": {
        "type": "Point",
        "coordinates": [
          111.46291251006954,
          42.37728697763061
        ]
      }
    },
    {
      "type": "Feature",
      "properties": {
        "norad_id": 33884,
        "name": "IRIDIUM 33 DEB",
        "group": "iridium-33-debris",
        "lat": 74.00248979343814,
        "lon": 178.49327204524235,
        "alt_km": 635.2918687930769,
        "timestamp": "2025-12-09T11:33:55.185657+00:00",
        "meta_object_name": "IRIDIUM 33 DEB",
        "meta_object_id": "1997-051BD",
        "meta_epoch": "2025-12-09T01:28:11.764128",
        "meta_mean_motion": 14.77315007,
        "meta_eccentricity": 0.0010092,
        "meta_inclination": 86.3693,
        "meta_ra_of_asc_node": 11.4785,
        "meta_arg_of_pericenter": 337.7014,
        "meta_mean_anomaly": 52.1212,
        "meta_ephemeris_type": 0,
        "meta_classification_type": "U",
        "meta_norad_cat_id": 33884,
        "meta_element_set_no": 999,
        "meta_rev_at_epoch": 88793,
        "meta_bstar": 0.0015599,
        "meta_mean_motion_dot": 0.00011112,
        "meta_mean_motion_ddot": 0,
        "tle_line1": "1 33884U 97051BD  25343.06124727  .00011112  00000+0  15599-2 0  9990",
        "tle_line2": "2 33884  86.3693  11.4785 0010092 337.7014  52.1212 14.77315007887939"
      },
      "geometry": {
        "type": "Point",
        "coordinates": [
          178.49327204524235,
          74.00248979343814
        ]
      }
    }
  ]
}